KEPLER-21               
1 56218U 23054AS  26068.80780274  .00079942  00000+0  58135-3 0  9999
2 56218  97.2962 342.6260 0004885  55.6816 304.4910 15.73096759163494
STARLINK-11421 [DTC]    
1 61945U 24209G   26068.16805470  .00152356  00000+0  12371-2 0  9992
2 61945  53.1573  14.0042 0001812 125.4243 234.6944 15.69755182 76593
